{
  "norad_id": 66029,
  "name": "STARLINK-35399",
  "history": [
    {
      "epoch": "2026-03-28T12:15:07.940448Z",
      "apogee_km": 476.2516585984149,
      "perigee_km": 474.07957286738565,
      "latitude_deg": 6.65946714936943e-05,
      "longitude_deg": 7.007348429349888,
      "height_km": 476.11369585212014,
      "semi_major_axis_km": 6853.3026157329,
      "eccentricity": 0.00015847,
      "inclination_deg": 53.1625,
      "raan_deg": 16.7203,
      "arg_perigee_deg": 92.6481,
      "mean_anomaly_deg": 267.4702,
      "mean_motion_rev_day": 15.30216563
    },
    {
      "epoch": "2026-03-29T03:55:39.685728Z",
      "apogee_km": 475.8282259039788,
      "perigee_km": 474.55624799760153,
      "latitude_deg": -3.802424054925303e-05,
      "longitude_deg": 128.19942909590037,
      "height_km": 475.9068138712842,
      "semi_major_axis_km": 6853.32923695079,
      "eccentricity": 9.28e-05,
      "inclination_deg": 53.1605,
      "raan_deg": 13.6885,
      "arg_perigee_deg": 73.1759,
      "mean_anomaly_deg": 286.9343,
      "mean_motion_rev_day": 15.30207647
    }
  ]
}